STARLINK-32475          
1 61728U 24196X   26068.46745836 -.00002048  00000+0 -57125-4 0  9990
2 61728  53.1598 102.2923 0000665  86.1728 273.9349 15.30170416 77127
AL MUNTHER              
1 63240U 25052AG  26068.64540749  .00017933  00000+0  65015-3 0  9992
2 63240  97.4001 323.9152 0008027 130.7043 229.4895 15.28381521 54798
